NORAD_CAT_ID,OBJECT_NAME,OBJECT_TYPE,EPOCH,MEAN_MOTION,ECCENTRICITY,INCLINATION,RA_OF_ASC_NODE,ARG_OF_PERICENTER,MEAN_ANOMALY,BSTAR,MEAN_MOTION_DOT,MEAN_MOTION_DDOT,TLE_LINE0,TLE_LINE1,TLE_LINE2,SEMIMAJOR_AXIS,PERIOD,APOGEE,PERIGEE,DECAYED
52340.0,STARLINK-3818,PAYLOAD,2023-08-21 07:41:22,15.08840659,0.0001241,53.2167,60.1971,100.9287,259.1845,0.00017486,2.496e-05,0.0,0 STARLINK-3818,1 52340U 22045K   23233.32039895  .00002496  00000-0  17486-3 0  9999,2 52340  53.2167  60.1971 0001241 100.9287 259.1845 15.08840659 75168,6917.878,95.438,540.602,538.885,0.0
52340.0,STARLINK-3818,PAYLOAD,2023-08-22 12:18:19,15.08840289,0.0001649,53.217,54.8489,57.2714,302.8437,-3.6691e-06,-3.46e-06,0.0,0 STARLINK-3818,1 52340U 22045K   23234.51272545 -.00000346  00000-0 -36691-5 0  9997,2 52340  53.2170  54.8489 0001649  57.2714 302.8437 15.08840289 75349,6917.88,95.438,540.885,538.604,0.0
52340.0,STARLINK-3818,PAYLOAD,2023-08-23 23:16:47,15.088446,0.0001172,53.2174,48.3005,114.352,245.7595,8.8497e-05,1.121e-05,0.0,0 STARLINK-3818,1 52340U 22045K   23235.96999800  .00001121  00000-0  88497-4 0  9997,2 52340  53.2174  48.3005 0001172 114.3520 245.7595 15.08844600 75561,6917.866,95.437,540.542,538.921,0.0
52340.0,STARLINK-3818,PAYLOAD,2023-08-24 21:32:12,15.08836198,0.0001337,53.2179,44.1374,116.8061,243.3068,8.0775e-05,9.98e-06,0.0,0 STARLINK-3818,1 52340U 22045K   23236.89736590  .00000998  00000-0  80775-4 0  9997,2 52340  53.2179  44.1374 0001337 116.8061 243.3068 15.08836198 75707,6917.892,95.438,540.682,538.832,0.0
52340.0,STARLINK-3818,PAYLOAD,2023-08-24 23:07:35,15.08838563,0.0001027,53.2179,43.8428,85.9997,274.1113,8.0843e-05,9.99e-06,0.0,0 STARLINK-3818,1 52340U 22045K   23236.96360457  .00000999  00000-0  80843-4 0  9997,2 52340  53.2179  43.8428 0001027  85.9997 274.1113 15.08838563 75715,6917.885,95.438,540.46,539.039,0.0
52340.0,STARLINK-3818,PAYLOAD,2023-08-25 11:50:41,15.088263,8.23e-05,53.2185,41.4689,51.5955,308.5111,-1.5526e-05,-5.35e-06,0.0,0 STARLINK-3818,1 52340U 22045K   23237.49353620 -.00000535  00000-0 -15526-4 0  9994,2 52340  53.2185  41.4689 0000823  51.5955 308.5111 15.08826300 75795,6917.922,95.438,540.357,539.218,0.0
52340.0,STARLINK-3818,PAYLOAD,2023-08-25 21:22:59,15.08845469,0.0001228,53.2185,39.6763,100.3356,259.7775,9.4447e-05,1.216e-05,0.0,0 STARLINK-3818,1 52340U 22045K   23237.89096190  .00001216  00000-0  94447-4 0  9998,2 52340  53.2185  39.6763 0001228 100.3356 259.7775 15.08845469 75852,6917.864,95.437,540.578,538.879,0.0
52340.0,STARLINK-3818,PAYLOAD,2023-08-26 13:16:51,15.0884894,0.0001285,53.2186,36.7035,92.007,268.107,-0.00013262,-2.398e-05,0.0,0 STARLINK-3818,1 52340U 22045K   23238.55337168 -.00002398  00000-0 -13262-3 0  9994,2 52340  53.2186  36.7035 0001285  92.0070 268.1070 15.08848940 75956,6917.853,95.437,540.607,538.829,0.0
52340.0,STARLINK-3818,PAYLOAD,2023-08-26 18:03:00,15.08846484,9.18e-05,53.2174,35.8149,86.3545,273.7552,6.7631e-05,7.89e-06,0.0,0 STARLINK-3818,1 52340U 22045K   23238.75208354  .00000789  00000-0  67631-4 0  9990,2 52340  53.2174  35.8149 0000918  86.3545 273.7552 15.08846484 75985,6917.861,95.437,540.361,539.091,0.0
52340.0,STARLINK-3818,PAYLOAD,2023-08-27 17:53:47,15.08845221,0.0001054,53.2176,31.354,86.9594,273.1519,9.2317e-05,1.182e-05,0.0,0 STARLINK-3818,1 52340U 22045K   23239.74568555  .00001182  00000-0  92317-4 0  9999,2 52340  53.2176  31.3540 0001054  86.9594 273.1519 15.08845221 76138,6917.864,95.437,540.459,539.0,0.0
52340.0,STARLINK-3818,PAYLOAD,2023-08-27 19:29:10,15.08846471,0.0001084,53.2178,31.0559,87.8117,272.2999,0.00010711,1.418e-05,0.0,0 STARLINK-3818,1 52340U 22045K   23239.81192432  .00001418  00000-0  10711-3 0  9993,2 52340  53.2178  31.0559 0001084  87.8117 272.2999 15.08846471 76142,6917.861,95.437,540.476,538.976,0.0
52340.0,STARLINK-3818,PAYLOAD,2023-08-28 03:26:06,15.08840453,0.000123,53.2184,29.5679,85.1179,274.9954,1.7226e-05,-1.4e-07,0.0,0 STARLINK-3818,1 52340U 22045K   23240.14313020 -.00000014  00000-0  17226-4 0  9990,2 52340  53.2184  29.5679 0001230  85.1179 274.9954 15.08840453 76195,6917.879,95.438,540.595,538.893,0.0
52340.0,STARLINK-3818,PAYLOAD,2023-08-28 19:19:57,15.08844534,0.0001245,53.2186,26.5935,89.7527,270.3608,5.1105e-05,5.26e-06,0.0,0 STARLINK-3818,1 52340U 22045K   23240.80552767  .00000526  00000-0  51105-4 0  9997,2 52340  53.2186  26.5935 0001245  89.7527 270.3608 15.08844534 76293,6917.867,95.437,540.593,538.87,0.0
52340.0,STARLINK-3818,PAYLOAD,2023-08-29 15:59:58,15.0884699,0.000122,53.2184,22.7276,95.1652,264.9479,0.00010921,1.451e-05,0.0,0 STARLINK-3818,1 52340U 22045K   23241.66664476  .00001451  00000-0  10921-3 0  9991,2 52340  53.2184  22.7276 0001220  95.1652 264.9479 15.08846990 76428,6917.859,95.437,540.568,538.88,0.0
52340.0,STARLINK-3818,PAYLOAD,2023-08-30 15:50:45,15.08851936,0.0001138,53.2179,18.2683,95.7122,264.4,-4.3833e-05,-9.86e-06,0.0,0 STARLINK-3818,1 52340U 22045K   23242.66024508 -.00000986  00000-0 -43833-4 0  9991,2 52340  53.2179  18.2683 0001138  95.7122 264.4000 15.08851936 76577,6917.844,95.437,540.496,538.922,0.0
52340.0,STARLINK-3818,PAYLOAD,2023-08-31 09:20:00,15.08839523,0.0001174,53.2176,14.9988,89.1057,271.007,4.3242e-05,4e-06,0.0,0 STARLINK-3818,1 52340U 22045K   23243.38889054  .00000400  00000-0  43242-4 0  9999,2 52340  53.2176  14.9988 0001174  89.1057 271.0070 15.08839523 76680,6917.882,95.438,540.559,538.935,0.0
52340.0,STARLINK-3818,PAYLOAD,2023-08-31 12:30:46,15.08841903,0.0001143,53.2179,14.4038,90.9802,269.1321,5.7787e-05,6.32e-06,0.0,0 STARLINK-3818,1 52340U 22045K   23243.52136830  .00000632  00000-0  57787-4 0  9998,2 52340  53.2179  14.4038 0001143  90.9802 269.1321 15.08841903 76703,6917.875,95.437,540.53,538.949,0.0
52340.0,STARLINK-3818,PAYLOAD,2023-09-01 10:46:10,15.08844024,0.0001182,53.2186,10.2407,87.0195,273.0933,-3.1283e-05,-7.86e-06,0.0,0 STARLINK-3818,1 52340U 22045K   23244.44873109 -.00000786  00000-0 -31283-4 0  9992,2 52340  53.2186  10.2407 0001182  87.0195 273.0933 15.08844024 76845,6917.868,95.437,540.551,538.915,0.0
52340.0,STARLINK-3818,PAYLOAD,2023-09-01 15:32:19,15.08847543,0.000123,53.2178,9.3497,88.3104,271.8029,4.828e-05,4.81e-06,0.0,0 STARLINK-3818,1 52340U 22045K   23244.64744619  .00000481  00000-0  48280-4 0  9992,2 52340  53.2178   9.3497 0001230  88.3104 271.8029 15.08847543 76876,6917.857,95.437,540.573,538.871,0.0
52340.0,STARLINK-3818,PAYLOAD,2023-09-02 09:01:34,15.08833998,0.0001428,53.2177,6.0789,90.1251,269.9905,1.2973e-05,-8.1e-07,0.0,0 STARLINK-3818,1 52340U 22045K   23245.37609739 -.00000081  00000-0  12973-4 0  9993,2 52340  53.2177   6.0789 0001428  90.1251 269.9905 15.08833998 76988,6917.899,95.438,540.752,538.776,0.0
52340.0,STARLINK-3818,PAYLOAD,2023-09-02 10:36:58,15.08829889,0.0001524,53.2174,5.7811,90.5051,269.6116,2.3735e-05,9e-07,0.0,0 STARLINK-3818,1 52340U 22045K   23245.44233934  .00000090  00000-0  23735-4 0  9998,2 52340  53.2174   5.7811 0001524  90.5051 269.6116 15.08829889 76992,6917.911,95.438,540.831,538.722,0.0
52340.0,STARLINK-3818,PAYLOAD,2023-09-02 15:23:06,15.08838681,0.0001238,53.2184,4.8888,82.2775,277.8357,7.3884e-05,8.88e-06,0.0,0 STARLINK-3818,1 52340U 22045K   23245.64105249  .00000888  00000-0  73884-4 0  9992,2 52340  53.2184   4.8888 0001238  82.2775 277.8357 15.08838681 77023,6917.884,95.438,540.606,538.893,0.0
52340.0,STARLINK-3818,PAYLOAD,2023-09-03 00:55:25,15.0884475,0.0001217,53.2185,3.1052,88.017,272.0962,7.0518e-05,8.35e-06,0.0,0 STARLINK-3818,1 52340U 22045K   23246.03848961  .00000835  00000-0  70518-4 0  9994,2 52340  53.2185   3.1052 0001217  88.0170 272.0962 15.08844750 77088,6917.866,95.437,540.573,538.889,0.0
52340.0,STARLINK-3818,PAYLOAD,2023-09-03 10:27:44,15.08849387,0.0001187,53.2186,1.3209,89.1809,270.9319,6.925e-05,8.15e-06,0.0,0 STARLINK-3818,1 52340U 22045K   23246.43592642  .00000815  00000-0  69250-4 0  9999,2 52340  53.2186   1.3209 0001187  89.1809 270.9319 15.08849387 77141,6917.852,95.437,540.538,538.896,0.0
52340.0,STARLINK-3818,PAYLOAD,2023-09-04 07:07:45,15.08837488,0.0002348,53.2173,357.4548,85.0827,275.0434,0.00010985,1.46e-05,0.0,0 STARLINK-3818,1 52340U 22045K   23247.29705433  .00001460  00000-0  10985-3 0  9995,2 52340  53.2173 357.4548 0002348  85.0827 275.0434 15.08837488 77270,6917.888,95.438,541.377,538.129,0.0
52340.0,STARLINK-3818,PAYLOAD,2023-09-04 13:29:18,15.08823827,0.0001221,53.2176,356.2657,94.3194,265.7937,-0.00010101,-1.894e-05,0.0,0 STARLINK-3818,1 52340U 22045K   23247.56201931 -.00001894  00000-0 -10101-3 0  9992,2 52340  53.2176 356.2657 0001221  94.3194 265.7937 15.08823827 77311,6917.93,95.439,540.64,538.95,0.0
52340.0,STARLINK-3818,PAYLOAD,2023-09-05 00:37:00,15.08836279,0.0001237,53.2184,354.1835,91.1372,268.9761,2.0202e-05,3.4e-07,0.0,0 STARLINK-3818,1 52340U 22045K   23248.02569954  .00000034  00000-0  20202-4 0  9993,2 52340  53.2184 354.1835 0001237  91.1372 268.9761 15.08836279 77387,6917.892,95.438,540.613,538.901,0.0
52340.0,STARLINK-3818,PAYLOAD,2023-09-05 10:09:18,15.0884267,0.0001302,53.2187,352.3993,90.779,269.3351,7.3319e-05,8.79e-06,0.0,0 STARLINK-3818,1 52340U 22045K   23248.42313532  .00000879  00000-0  73319-4 0  9990,2 52340  53.2187 352.3993 0001302  90.7790 269.3351 15.08842670 77446,6917.872,95.437,540.638,538.837,0.0
52340.0,STARLINK-3818,PAYLOAD,2023-09-06 00:27:47,15.08840877,0.0001254,53.2177,349.7235,93.8432,266.2704,0.00039058,5.934e-05,0.0,0 STARLINK-3818,1 52340U 22045K   23249.01929706  .00005934  00000-0  39058-3 0  9990,2 52340  53.2177 349.7235 0001254  93.8432 266.2704 15.08840877 77532,6917.878,95.437,540.61,538.875,0.0
52340.0,STARLINK-3818,PAYLOAD,2023-09-07 08:15:29,15.08843245,0.0001207,53.2177,343.7756,97.0146,263.0984,7.9578e-05,9.79e-06,0.0,0 STARLINK-3818,1 52340U 22045K   23250.34409548  .00000979  00000-0  79578-4 0  9991,2 52340  53.2177 343.7756 0001207  97.0146 263.0984 15.08843245 77739,6917.87,95.437,540.57,538.9,0.0
